[{"OBJECT_NAME":"STARLINK-3995","OBJECT_ID":"2022-052AL","EPOCH":"2026-03-09T17:15:46.594656","MEAN_MOTION":15.08835895,"ECCENTRICITY":0.00013966,"INCLINATION":53.217,"RA_OF_ASC_NODE":268.9887,"ARG_OF_PERICENTER":109.2059,"MEAN_ANOMALY":250.9085,"EPHEMERIS_TYPE":0,"CLASSIFICATION_TYPE":"U","NORAD_CAT_ID":52632,"ELEMENT_SET_NO":999,"REV_AT_EPOCH":21100,"BSTAR":-2.4462657e-5,"MEAN_MOTION_DOT":-6.77e-6,"MEAN_MOTION_DDOT":0},{"OBJECT_NAME":"UNKNOWN","OBJECT_ID":"","EPOCH":"2026-03-07T17:21:07.805664","MEAN_MOTION":15.09455608,"ECCENTRICITY":0.0009057,"INCLINATION":82.8696,"RA_OF_ASC_NODE":177.6495,"ARG_OF_PERICENTER":167.3062,"MEAN_ANOMALY":192.8398,"EPHEMERIS_TYPE":0,"CLASSIFICATION_TYPE":"U","NORAD_CAT_ID":87725,"ELEMENT_SET_NO":999,"REV_AT_EPOCH":64668,"BSTAR":0.0060116,"MEAN_MOTION_DOT":0.00097492,"MEAN_MOTION_DDOT":0}]
